OPS 6582 (TRANSIT 5B-5) 
1 00965U 64083D   21137.61496674  .00000038  00000-0  40483-4 0  9992
2 00965  90.0227 194.3591 0039086 307.9366 167.5539 13.56755609791958
OSCAR 7 (AO-7)          
1 07530U 74089B   21137.92680675 -.00000027  00000-0  11840-3 0  9997
2 07530 101.8521 112.4642 0012648  80.8843 342.2340 12.53648684128148
UOSAT 2 (UO-11)         
1 14781U 84021B   21138.23988096  .00000123  00000-0  21153-4 0  9998
2 14781  97.5928 139.5698 0008569 170.5458 189.5919 14.83283468  2452
NOAA 9                  
1 15427U 84123A   21137.86464769  .00000025  00000-0  35602-4 0  9998
2 15427  98.9914 100.3312 0014322 204.0482 210.1230 14.16132118880859
LUSAT (LO-19)           
1 20442U 90005G   21137.83436928  .00000022  00000-0  24660-4 0  9999
2 20442  98.7392  93.0256 0010659 249.6716 110.3323 14.32985952636504
ITAMSAT (IO-26)         
1 22826U 93061D   21137.92179544 -.00000004  00000-0  16304-4 0  9997
2 22826  98.9132 154.6978 0010036 109.1273 251.0996 14.30453066441864
RADIO ROSTO (RS-15)     
1 23439U 94085A   21137.92754069 -.00000037  00000-0  15882-3 0  9991
2 23439  64.8129  65.3281 0160381 340.7398  18.7508 11.27570843 86899
JAS-2 (FO-29)           
1 24278U 96046B   21136.80099995 -.00000031  00000-0  63548-5 0  9996
2 24278  98.5682 208.9689 0349479 231.5466 125.3833 13.53103880221965
NOAA 15                 
1 25338U 98030A   21138.19580885  .00000070  00000-0  47789-4 0  9996
2 25338  98.6842 166.9880 0010550  15.7700 344.3806 14.26029970196935
TECHSAT 1B (GO-32)      
1 25397U 98043D   21137.83464047  .00000004  00000-0  21385-4 0  9997
2 25397  98.7691  83.4738 0001786 133.2524 226.8804 14.23708000187138
ISS (ZARYA)             
1 25544U 98067A   21138.23475447  .00001435  00000-0  34181-4 0  9995
2 25544  51.6434 130.8719 0003126  14.8081 100.2635 15.49017862283955
ORSTED                  
1 25635U 99008B   21137.83303213  .00000115  00000-0  34850-4 0  9995
2 25635  96.4736  89.5885 0138801   4.2287 356.0049 14.48288906173283
PHASE 3D (AO-40)        
1 26609U 00072B   21137.86428816 -.00000343  00000-0  00000+0 0  9999
2 26609   9.1819 328.3314 7947804 254.8209  13.9537  1.25587192 94322
PCSAT (NO-44)           
1 26931U 01043C   21137.97642686 -.00000015  00000-0  26156-4 0  9992
2 26931  67.0523 359.0937 0006779 262.5238  97.5093 14.30618385 24995
SAUDISAT 1C (SO-50)     
1 27607U 02058C   21138.21263864  .00000050  00000-0  27541-4 0  9992
2 27607  64.5562  70.8184 0037161  31.7932 328.5403 14.75746540990256
CUTE-1 (CO-55)          
1 27844U 03031E   21138.01569121  .00000061  00000-0  46863-4 0  9990
2 27844  98.6806 146.6901 0010249 160.4201 199.7372 14.22308271927692
CUBESAT XI-IV (CO-57)   
1 27848U 03031J   21137.99981975  .00000044  00000-0  39528-4 0  9996
2 27848  98.6863 147.2403 0009868 173.2457 186.8855 14.21885249927511
MOZHAYETS 4 (RS-22)     
1 27939U 03042A   21138.02950359  .00000076  00000-0  22270-4 0  9997
2 27939  98.1356 275.3450 0013360  22.8802 337.2983 14.66980285943061
INMARSAT 4-F1           
1 28628U 05009A   21137.93893218 -.00000253  00000-0  00000+0 0  9997
2 28628   3.3517  30.7220 0003017  29.4993 297.1420  1.00273606 59057
NOAA 18                 
1 28654U 05018A   21138.13071662  .00000074  00000-0  64222-4 0  9991
2 28654  98.9954 202.8718 0014269  12.4322 347.7198 14.12606615824257
CUBESAT XI-V            
1 28895U 05043F   21137.80472016  .00000164  00000-0  40352-4 0  9995
2 28895  98.0543 271.7201 0015580 309.8784  50.1048 14.63907867829751
METOP-A                 
1 29499U 06044A   21138.27665838  .00000001  00000-0  19771-4 0  9997
2 29499  98.4745 178.7473 0001492  73.3583   3.5020 14.21498800756458
CARTOSAT-2 (IRS-P7)     
1 29710U 07001B   21137.76789667  .00001900  00000-0  60598-4 0  9999
2 29710  97.8742 218.7381 0170954 354.0132   5.9055 15.21006117775986
FALCONSAT-3             
1 30776U 07006E   21137.77803133  .00004217  00000-0  10248-3 0  9994
2 30776  35.4345 297.3380 0002937 331.0526  29.0039 15.40515844788375
CAPE-1                  
1 31130U 07012P   21137.76093215  .00000189  00000-0  50262-4 0  9992
2 31130  98.2323  77.2431 0097175  79.5531 281.6600 14.56675590747481
CARTOSAT-2A             
1 32783U 08021A   21138.09319409  .00000203  00000-0  34555-4 0  9995
2 32783  97.8730 197.9728 0012973  13.7229 346.4326 14.78711165704592
CUTE-1.7+APD II (CO-65) 
1 32785U 08021C   21137.61582645  .00000304  00000-0  38085-4 0  9992
2 32785  97.6095 117.6595 0014519 103.7233 256.5602 14.88707717707589
COMPASS-1               
1 32787U 08021E   21138.19113239  .00000952  00000-0  94056-4 0  9996
2 32787  97.5286 130.3744 0013295  37.1825 323.0313 14.94098013709060
AAUSAT-II               
1 32788U 08021F   21137.91343524  .00000594  00000-0  58489-4 0  9990
2 32788  97.5042 133.8533 0012145  20.2534 339.9166 14.95548498709293
DELFI-C3 (DO-64)        
1 32789U 08021G   21138.10985730  .00002081  00000-0  13581-3 0  9990
2 32789  97.3781 174.6439 0010242 242.2122 117.8069 15.08886758712350
SEEDS II (CO-66)        
1 32791U 08021J   21136.49324289  .00000523  00000-0  57715-4 0  9996
2 32791  97.5699 122.5245 0014828  74.6960 285.5897 14.91383253708014
YUBILEINY (RS-30)       
1 32953U 08025A   21137.88575951  .00000028  00000-0  12906-3 0  9990
2 32953  82.5046  69.9389 0020761  45.4148 314.8622 12.43101886589186
FENGYUN 3A              
1 32958U 08026A   21137.94695873  .00000021  00000-0  29993-4 0  9997
2 32958  98.4482 113.0605 0009941  87.9436 272.2879 14.18656247672141
PRISM (HITOMI)          
1 33493U 09002B   21138.19619875  .00000228  00000-0  25066-4 0  9999
2 33493  98.1872  99.2853 0016027  31.1184 329.0983 14.97627671669802
STARS (KUKAI)           
1 33498U 09002G   21138.23117282  .00000243  00000-0  40019-4 0  9996
2 33498  98.2178  17.6436 0012281  83.8473 276.4136 14.79341297663414
KKS-1 (KISEKI)          
1 33499U 09002H   21138.22967538  .00000112  00000-0  24261-4 0  9999
2 33499  98.2729   7.5234 0009989 131.7467 228.4597 14.75653775662384
NOAA 19                 
1 33591U 09005A   21137.94931580  .00000048  00000-0  51607-4 0  9993
2 33591  99.1852 157.8966 0013398 214.5036 145.5266 14.12467607632350
SWISSCUBE               
1 35932U 09051B   21137.51049240  .00000146  00000-0  43750-4 0  9990
2 35932  98.6050 336.5563 0007552 173.5371 186.5925 14.56528592618490
BEESAT-1                
1 35933U 09051C   21137.33995961  .00000122  00000-0  38333-4 0  9996
2 35933  98.6015 338.2089 0005499 184.0926 176.0226 14.56587214618501
ITUPSAT1                
1 35935U 09051E   21138.08168137  .00000104  00000-0  34948-4 0  9996
2 35935  98.6119 339.1181 0007814 186.2876 173.8223 14.55720839618381
XIWANG-1 (HOPE-1)       
1 36122U 09072B   21137.74782663 -.00000051  00000-0 -21559-4 0  9993
2 36122 100.1297 119.6899 0007618 167.1786 192.9519 13.16360429548858
CARTOSAT-2B             
1 36795U 10035A   21138.12915911  .00000113  00000-0  22324-4 0  9995
2 36795  97.8704 197.4116 0015300  81.3256 278.9705 14.78694228585647
TISAT 1                 
1 36799U 10035E   21138.06528146  .00000583  00000-0  64041-4 0  9995
2 36799  98.2068 327.6526 0011182 318.5770  41.4599 14.91715026589004
FENGYUN 3B              
1 37214U 10059A   21127.56927939 -.00000009  00000-0  18668-4 0  9998
2 37214  99.0795 120.8815 0018058  70.7777  41.7887 14.15985370543549
JUGNU                   
1 37839U 11058B   21138.09853625  .00000312  00000-0  24338-4 0  9998
2 37839  19.9620  53.2874 0019077 117.8998  10.3282 14.12713953496275
SRMSAT                  
1 37841U 11058D   21138.07832674  .00000289  00000-0  13370-4 0  9997
2 37841  19.9709 124.6614 0011716 320.8266 102.5895 14.10694741495563
M-CUBED & EXP-1 PRIME   
1 37855U 11061F   21138.22643243  .00001406  00000-0  74923-4 0  9998
2 37855 101.7141  45.9600 0167170 160.5498 200.2196 15.07560895522098
HORYU-2                 
1 38340U 12025D   21137.77548656  .00000220  00000-0  39763-4 0  9996
2 38340  98.2340 204.5601 0012567  58.1252 302.1178 14.76032604473861
METOP-B                 
1 38771U 12049A   21138.11405345 -.00000004  00000-0  18060-4 0  9994
2 38771  98.7168 198.5712 0002352  99.5638 319.0640 14.21477441449568
SARAL                   
1 39086U 13009A   21137.92693971 -.00000011  00000-0  12056-4 0  9990
2 39086  98.5465 324.4340 0001363  49.3250 310.8052 14.32051691429872
AAUSAT 3                
1 39087U 13009B   21137.78796359  .00000145  00000-0  64802-4 0  9992
2 39087  98.4267 341.7758 0012806  10.8314 349.3162 14.35930221430795
STRAND-1                
1 39090U 13009E   21137.80027210 -.00000036  00000-0  23312-5 0  9994
2 39090  98.4303 340.7245 0009519  17.5764 342.5749 14.35174825430640
BRITE-AUSTRIA           
1 39091U 13009F   21137.78529941  .00000015  00000-0  20089-4 0  9993
2 39091  98.4305 339.8405 0010955  22.8817 337.2854 14.35186817430679
UNIBRITE                
1 39092U 13009G   21137.42281552 -.00000001  00000-0  14710-4 0  9998
2 39092  98.4334 339.1889 0009775  19.7412 340.4150 14.35057751430584
SOMP                    
1 39134U 13015E   21137.77019761  .00001885  00000-0  89800-4 0  9993
2 39134  64.8637 272.2384 0005727 299.3018  60.7538 15.22480988446546
BEESAT-3                
1 39135U 13015F   21137.90254019  .00001401  00000-0  75433-4 0  9997
2 39135  64.8676 300.4975 0001664 209.9381 150.1651 15.19297142445976
BEESAT-2                
1 39136U 13015G   21137.88748453  .00001188  00000-0  66360-4 0  9996
2 39136  64.8741 306.8116 0025284 249.0199 110.8222 15.18658436445853
NEE-01 PEGASO           
1 39151U 13018B   21136.72422488  .00000216  00000-0  35198-4 0  9991
2 39151  97.9767 239.3689 0018432 100.5271 259.8019 14.80339795434970
CUBEBUG-1 (CAPITAN BETO)
1 39153U 13018D   21137.76769456  .00000248  00000-0  38906-4 0  9992
2 39153  97.9914 243.5732 0018301  93.1369 267.1938 14.80920493435189
